FLOCK 4G-33             
1 62685U 25009CE  26195.72985125  .00003316  00000+0  13260-3 0  9992
2 62685  97.3948 275.2889 0004650 216.1313 143.9612 15.25795716 83007
FLOCK 4H-1              
1 66704U 25276AQ  26195.48801877  .00003928  00000+0  18107-3 0  9992
2 66704  97.4174 268.7454 0001950 174.7735 185.3521 15.20846788 34586
FLOCK 4H-2              
1 66705U 25276AR  26195.72497449  .00003558  00000+0  16300-3 0  9998
2 66705  97.4169 269.0271 0001434 155.2141 204.9164 15.21119608 34625
FLOCK 4H-3              
1 66706U 25276AS  26195.91219543  .00003518  00000+0  16536-3 0  9994
2 66706  97.4238 269.1364 0002457 250.1831 109.9139 15.20241787 34634
FLOCK 4H-4              
1 66707U 25276AT  26195.75073776  .00004020  00000+0  18962-3 0  9997
2 66707  97.4222 268.8447 0003115 256.8910 103.1977 15.20031957 34608
FLOCK 4H-5              
1 66708U 25276AU  26195.74347767  .00003614  00000+0  16657-3 0  9998
2 66708  97.4171 269.0181 0001331 134.6792 225.4552 15.20899422 34627
FLOCK 4H-6              
1 66709U 25276AV  26195.78935757  .00003473  00000+0  16161-3 0  9998
2 66709  97.4223 269.1065 0002449 206.1137 153.9975 15.20601617 34628
FLOCK 4H-7              
1 66710U 25276AW  26195.77108561  .00003758  00000+0  17572-3 0  9997
2 66710  97.4182 268.8466 0000720 308.4163  51.7008 15.20376272 34617
FLOCK 4H-8              
1 66711U 25276AX  26195.82781948  .00003922  00000+0  18268-3 0  9996
2 66711  97.4221 269.0519 0001851 273.8914  86.2110 15.20484491 34620
FLOCK 4H-9              
1 66712U 25276AY  26195.90749501  .00003927  00000+0  18136-3 0  9994
2 66712  97.4211 269.2246 0002420 214.7642 145.3436 15.20785416 34645
FLOCK 4H-10             
1 66713U 25276AZ  26195.66902520  .00003952  00000+0  18581-3 0  9992
2 66713  97.4187 268.6999 0002948 257.7158 102.3748 15.20159456 34592
FLOCK 4H-11             
1 66714U 25276BA  26195.89226385  .00008009  00000+0  34022-3 0  9992
2 66714  97.4193 269.5114 0001436 246.3091 113.7995 15.23322862 34664
FLOCK 4H-12             
1 66715U 25276BB  26195.76295691  .00004056  00000+0  18706-3 0  9994
2 66715  97.4186 269.0186 0001853 182.0554 178.0674 15.20812387 34935
FLOCK 4H-13             
1 66716U 25276BC  26195.66780315  .00003916  00000+0  18019-3 0  9997
2 66716  97.4217 269.0981 0001857 144.7207 215.4152 15.20912441 34612
FLOCK 4H-14             
1 66717U 25276BD  26195.82573175  .00004018  00000+0  18241-3 0  9991
2 66717  97.4202 269.3000 0001777 142.3460 217.7901 15.21362023 33890
FLOCK 4H-15             
1 66718U 25276BE  26195.76873271  .00003672  00000+0  17425-3 0  9993
2 66718  97.4216 268.8034 0002648 278.7878  81.3057 15.19879151 34601
