{"fetched_at":"2026-07-15T06:35:37.596Z","source":"https://celestrak.org/NORAD/elements/gp.php?GROUP=planet&FORMAT=JSON","constellation":"superdove","records":[{"OBJECT_NAME":"FLOCK 4G-33","OBJECT_ID":"2025-009CE","EPOCH":"2026-07-14T17:30:59.148000","CLASSIFICATION_TYPE":"U","MEAN_MOTION":15.25795716,"ECCENTRICITY":0.00046506,"INCLINATION":97.3948,"RA_OF_ASC_NODE":275.2889,"ARG_OF_PERICENTER":216.1313,"MEAN_ANOMALY":143.9612,"EPHEMERIS_TYPE":0,"NORAD_CAT_ID":62685,"ELEMENT_SET_NO":999,"REV_AT_EPOCH":8300,"BSTAR":0.0001325986,"MEAN_MOTION_DOT":0.00003316,"MEAN_MOTION_DDOT":0},{"OBJECT_NAME":"FLOCK 4H-1","OBJECT_ID":"2025-276AQ","EPOCH":"2026-07-14T11:42:44.821728","CLASSIFICATION_TYPE":"U","MEAN_MOTION":15.20846788,"ECCENTRICITY":0.00019504,"INCLINATION":97.4174,"RA_OF_ASC_NODE":268.7454,"ARG_OF_PERICENTER":174.7735,"MEAN_ANOMALY":185.3521,"EPHEMERIS_TYPE":0,"NORAD_CAT_ID":66704,"ELEMENT_SET_NO":999,"REV_AT_EPOCH":3458,"BSTAR":0.00018106536,"MEAN_MOTION_DOT":0.00003928,"MEAN_MOTION_DDOT":0},{"OBJECT_NAME":"FLOCK 4H-2","OBJECT_ID":"2025-276AR","EPOCH":"2026-07-14T17:23:57.795936","CLASSIFICATION_TYPE":"U","MEAN_MOTION":15.21119608,"ECCENTRICITY":0.00014345,"INCLINATION":97.4169,"RA_OF_ASC_NODE":269.0271,"ARG_OF_PERICENTER":155.2141,"MEAN_ANOMALY":204.9164,"EPHEMERIS_TYPE":0,"NORAD_CAT_ID":66705,"ELEMENT_SET_NO":999,"REV_AT_EPOCH":3462,"BSTAR":0.00016299507,"MEAN_MOTION_DOT":0.00003558,"MEAN_MOTION_DDOT":0},{"OBJECT_NAME":"FLOCK 4H-3","OBJECT_ID":"2025-276AS","EPOCH":"2026-07-14T21:53:33.685152","CLASSIFICATION_TYPE":"U","MEAN_MOTION":15.20241787,"ECCENTRICITY":0.00024578,"INCLINATION":97.4238,"RA_OF_ASC_NODE":269.1364,"ARG_OF_PERICENTER":250.1831,"MEAN_ANOMALY":109.9139,"EPHEMERIS_TYPE":0,"NORAD_CAT_ID":66706,"ELEMENT_SET_NO":999,"REV_AT_EPOCH":3463,"BSTAR":0.00016536282,"MEAN_MOTION_DOT":0.00003518,"MEAN_MOTION_DDOT":0},{"OBJECT_NAME":"FLOCK 4H-4","OBJECT_ID":"2025-276AT","EPOCH":"2026-07-14T18:01:03.742464","CLASSIFICATION_TYPE":"U","MEAN_MOTION":15.20031957,"ECCENTRICITY":0.00031159,"INCLINATION":97.4222,"RA_OF_ASC_NODE":268.8447,"ARG_OF_PERICENTER":256.891,"MEAN_ANOMALY":103.1977,"EPHEMERIS_TYPE":0,"NORAD_CAT_ID":66707,"ELEMENT_SET_NO":999,"REV_AT_EPOCH":3460,"BSTAR":0.00018962087,"MEAN_MOTION_DOT":0.0000402,"MEAN_MOTION_DDOT":0},{"OBJECT_NAME":"FLOCK 4H-5","OBJECT_ID":"2025-276AU","EPOCH":"2026-07-14T17:50:36.470688","CLASSIFICATION_TYPE":"U","MEAN_MOTION":15.20899422,"ECCENTRICITY":0.00013314,"INCLINATION":97.4171,"RA_OF_ASC_NODE":269.0181,"ARG_OF_PERICENTER":134.6792,"MEAN_ANOMALY":225.4552,"EPHEMERIS_TYPE":0,"NORAD_CAT_ID":66708,"ELEMENT_SET_NO":999,"REV_AT_EPOCH":3462,"BSTAR":0.00016656833,"MEAN_MOTION_DOT":0.00003614,"MEAN_MOTION_DDOT":0},{"OBJECT_NAME":"FLOCK 4H-6","OBJECT_ID":"2025-276AV","EPOCH":"2026-07-14T18:56:40.494048","CLASSIFICATION_TYPE":"U","MEAN_MOTION":15.20601617,"ECCENTRICITY":0.00024494,"INCLINATION":97.4223,"RA_OF_ASC_NODE":269.1065,"ARG_OF_PERICENTER":206.1137,"MEAN_ANOMALY":153.9975,"EPHEMERIS_TYPE":0,"NORAD_CAT_ID":66709,"ELEMENT_SET_NO":999,"REV_AT_EPOCH":3462,"BSTAR":0.00016161046,"MEAN_MOTION_DOT":0.00003473,"MEAN_MOTION_DDOT":0},{"OBJECT_NAME":"FLOCK 4H-7","OBJECT_ID":"2025-276AW","EPOCH":"2026-07-14T18:30:21.796704","CLASSIFICATION_TYPE":"U","MEAN_MOTION":15.20376272,"ECCENTRICITY":0.00007202,"INCLINATION":97.4182,"RA_OF_ASC_NODE":268.8466,"ARG_OF_PERICENTER":308.4163,"MEAN_ANOMALY":51.7008,"EPHEMERIS_TYPE":0,"NORAD_CAT_ID":66710,"ELEMENT_SET_NO":999,"REV_AT_EPOCH":3461,"BSTAR":0.00017572232,"MEAN_MOTION_DOT":0.00003758,"MEAN_MOTION_DDOT":0},{"OBJECT_NAME":"FLOCK 4H-8","OBJECT_ID":"2025-276AX","EPOCH":"2026-07-14T19:52:03.603072","CLASSIFICATION_TYPE":"U","MEAN_MOTION":15.20484491,"ECCENTRICITY":0.00018516,"INCLINATION":97.4221,"RA_OF_ASC_NODE":269.0519,"ARG_OF_PERICENTER":273.8914,"MEAN_ANOMALY":86.211,"EPHEMERIS_TYPE":0,"NORAD_CAT_ID":66711,"ELEMENT_SET_NO":999,"REV_AT_EPOCH":3462,"BSTAR":0.00018268399,"MEAN_MOTION_DOT":0.00003922,"MEAN_MOTION_DDOT":0},{"OBJECT_NAME":"FLOCK 4H-9","OBJECT_ID":"2025-276AY","EPOCH":"2026-07-14T21:46:47.568864","CLASSIFICATION_TYPE":"U","MEAN_MOTION":15.20785416,"ECCENTRICITY":0.00024202,"INCLINATION":97.4211,"RA_OF_ASC_NODE":269.2246,"ARG_OF_PERICENTER":214.7642,"MEAN_ANOMALY":145.3436,"EPHEMERIS_TYPE":0,"NORAD_CAT_ID":66712,"ELEMENT_SET_NO":999,"REV_AT_EPOCH":3464,"BSTAR":0.00018135996,"MEAN_MOTION_DOT":0.00003927,"MEAN_MOTION_DDOT":0},{"OBJECT_NAME":"FLOCK 4H-10","OBJECT_ID":"2025-276AZ","EPOCH":"2026-07-14T16:03:23.777280","CLASSIFICATION_TYPE":"U","MEAN_MOTION":15.20159456,"ECCENTRICITY":0.00029487,"INCLINATION":97.4187,"RA_OF_ASC_NODE":268.6999,"ARG_OF_PERICENTER":257.7158,"MEAN_ANOMALY":102.3748,"EPHEMERIS_TYPE":0,"NORAD_CAT_ID":66713,"ELEMENT_SET_NO":999,"REV_AT_EPOCH":3459,"BSTAR":0.00018580984,"MEAN_MOTION_DOT":0.00003952,"MEAN_MOTION_DDOT":0},{"OBJECT_NAME":"FLOCK 4H-11","OBJECT_ID":"2025-276BA","EPOCH":"2026-07-14T21:24:51.596640","CLASSIFICATION_TYPE":"U","MEAN_MOTION":15.23322862,"ECCENTRICITY":0.0001436,"INCLINATION":97.4193,"RA_OF_ASC_NODE":269.5114,"ARG_OF_PERICENTER":246.3091,"MEAN_ANOMALY":113.7995,"EPHEMERIS_TYPE":0,"NORAD_CAT_ID":66714,"ELEMENT_SET_NO":999,"REV_AT_EPOCH":3466,"BSTAR":0.00034022248,"MEAN_MOTION_DOT":0.00008009,"MEAN_MOTION_DDOT":0},{"OBJECT_NAME":"FLOCK 4H-12","OBJECT_ID":"2025-276BB","EPOCH":"2026-07-14T18:18:39.477024","CLASSIFICATION_TYPE":"U","MEAN_MOTION":15.20812387,"ECCENTRICITY":0.00018539,"INCLINATION":97.4186,"RA_OF_ASC_NODE":269.0186,"ARG_OF_PERICENTER":182.0554,"MEAN_ANOMALY":178.0674,"EPHEMERIS_TYPE":0,"NORAD_CAT_ID":66715,"ELEMENT_SET_NO":999,"REV_AT_EPOCH":3493,"BSTAR":0.00018706372,"MEAN_MOTION_DOT":0.00004056,"MEAN_MOTION_DDOT":0},{"OBJECT_NAME":"FLOCK 4H-13","OBJECT_ID":"2025-276BC","EPOCH":"2026-07-14T16:01:38.192160","CLASSIFICATION_TYPE":"U","MEAN_MOTION":15.20912441,"ECCENTRICITY":0.00018575,"INCLINATION":97.4217,"RA_OF_ASC_NODE":269.0981,"ARG_OF_PERICENTER":144.7207,"MEAN_ANOMALY":215.4152,"EPHEMERIS_TYPE":0,"NORAD_CAT_ID":66716,"ELEMENT_SET_NO":999,"REV_AT_EPOCH":3461,"BSTAR":0.00018019235,"MEAN_MOTION_DOT":0.00003916,"MEAN_MOTION_DDOT":0},{"OBJECT_NAME":"FLOCK 4H-14","OBJECT_ID":"2025-276BD","EPOCH":"2026-07-14T19:49:03.223200","CLASSIFICATION_TYPE":"U","MEAN_MOTION":15.21362023,"ECCENTRICITY":0.00017778,"INCLINATION":97.4202,"RA_OF_ASC_NODE":269.3,"ARG_OF_PERICENTER":142.346,"MEAN_ANOMALY":217.7901,"EPHEMERIS_TYPE":0,"NORAD_CAT_ID":66717,"ELEMENT_SET_NO":999,"REV_AT_EPOCH":3389,"BSTAR":0.00018241123,"MEAN_MOTION_DOT":0.00004018,"MEAN_MOTION_DDOT":0},{"OBJECT_NAME":"FLOCK 4H-15","OBJECT_ID":"2025-276BE","EPOCH":"2026-07-14T18:26:58.506144","CLASSIFICATION_TYPE":"U","MEAN_MOTION":15.19879151,"ECCENTRICITY":0.00026486,"INCLINATION":97.4216,"RA_OF_ASC_NODE":268.8034,"ARG_OF_PERICENTER":278.7878,"MEAN_ANOMALY":81.3057,"EPHEMERIS_TYPE":0,"NORAD_CAT_ID":66718,"ELEMENT_SET_NO":999,"REV_AT_EPOCH":3460,"BSTAR":0.00017424678,"MEAN_MOTION_DOT":0.00003672,"MEAN_MOTION_DDOT":0}]}
